NUSAT-49 (KLARA DAN VO*)
1 60500U 24149AJ  26068.79810190  .00012912  00000+0  43568-3 0  9991
2 60500  97.3807 150.7380 0001132 286.7761  73.3356 15.30828857 86935
STARLINK-34975          
1 65224U 25176AC  26068.53717070  .00017361  00000+0  59708-3 0  9991
2 65224  53.1588 153.6775 0001646  76.0640 284.0544 15.30190492 33091
